CUTE-1 (CO-55)          
1 27844U 03031E   26137.47907676  .00000178  00000+0  95961-4 0  9996
2 27844  98.6745 146.4240 0008283 275.4174  84.6060 14.24315278187308
CUBESAT XI-IV (CO-57)   
1 27848U 03031J   26136.96017615  .00000150  00000+0  85081-4 0  9990
2 27848  98.6778 145.6494 0008323 298.5397  61.4943 14.23602877186932
CUBESAT XI-V            
1 28895U 05043F   26136.87452282  .00000766  00000+0  12875-3 0  9994
2 28895  98.2950 291.8469 0012953 307.9672  52.0364 14.72541900 97144
CUTE-1.7+APD II (CO-65) 
1 32785U 08021C   26137.48659419  .00003764  00000+0  24117-3 0  9998
2 32785  97.8266 118.2778 0010361 126.7881 233.4299 15.09135694980566
CANX-2                  
1 32790U 08021H   26137.18266487  .00001771  00000+0  12799-3 0  9999
2 32790  97.8621 116.3682 0011494 141.1467 219.0587 15.05374272980146
SEEDS II (CO-66)        
1 32791U 08021J   26137.44056068  .00011796  00000+0  38870-3 0  9997
2 32791  97.7519 133.8991 0004868  75.6870 284.4910 15.31622759982586
SWISSCUBE               
1 35932U 09051B   26137.24330707  .00000614  00000+0  13112-3 0  9993
2 35932  98.4056  44.5912 0005899 319.4811  40.5950 14.62416177884630
BEESAT-1                
1 35933U 09051C   26137.23674970  .00000509  00000+0  11209-3 0  9994
2 35933  98.3985  44.2844 0004729 338.5961  21.5041 14.61665049884667
ITUPSAT1                
1 35935U 09051E   26137.47465492  .00000468  00000+0  10668-3 0  9991
2 35935  98.4070  43.7503 0007125 344.8531  15.2454 14.60389786884250
TISAT 1                 
1 36799U 10035E   26137.26929275  .00013573  00000+0  46348-3 0  9990
2 36799  98.0706  81.1108 0003142  44.8086 315.3406 15.30448822862976
AEROCUBE 4.5A           
1 38767U 12048K   26137.39204211  .00125574  00000+0  68882-3 0  9995
2 38767  64.6276 138.0179 0018464 216.2796 143.7107 15.78938374367777
STRAND-1                
1 39090U 13009E   26137.49185404  .00000158  00000+0  67566-4 0  9995
2 39090  98.3916 318.4832 0007930 330.2368  29.8367 14.37143622692658
BRITE-AUSTRIA           
1 39091U 13009F   26137.49154534  .00000096  00000+0  47161-4 0  9996
2 39091  98.3987 317.6884 0009651 338.5598  21.5183 14.36528845692640
NEE-01 PEGASO           
1 39151U 13018B   26137.31413167  .00001155  00000+0  11552-3 0  9995
2 39151  98.1183 280.4553 0011318 265.0166  94.9761 14.93494058706093
POPACS 2                
1 39269U 13055E   26137.43659657  .00008897  00000+0  15299-3 0  9997
2 39269  80.9915 179.3760 0418663 292.7198  63.0276 14.90494992658635
POPACS 3                
1 39270U 13055F   26137.32659179  .00012102  00000+0  28803-3 0  9995
2 39270  81.0016 262.6243 0554817 163.8344 198.1390 14.55346871634067
ZACUBE-1 (TSHEPISOSAT)  
1 39417U 13066B   26137.47679493  .00002997  00000+0  23598-3 0  9994
2 39417  97.8123  99.6473 0041286 356.1921   3.8983 15.00933527676120
WNISAT-1                
1 39423U 13066H   26137.39792733  .00000283  00000+0  60803-4 0  9992
2 39423  97.7164 288.7462 0162368 329.3204  29.8578 14.58020816662247
TRITON-1                
1 39427U 13066M   26137.50014894  .00001870  00000+0  22913-3 0  9996
2 39427  97.8273  48.0063 0089664 335.4153  24.2798 14.81562566669547
GOMX-1                  
1 39430U 13066Q   26137.54224084  .00001223  00000+0  18999-3 0  9999
2 39430  97.6505 339.9385 0128832 175.2621 184.9839 14.69328077665412
CUBEBUG-2 (LO-74)       
1 39440U 13066AA  26137.38068764  .00001762  00000+0  16747-3 0  9990
2 39440  97.8896  86.2394 0059123 128.4893 232.1650 14.93506271672390
NEE-02 KRYSAOR          
1 39441U 13066AB  26137.38061721  .00000943  00000+0  10888-3 0  9997
2 39441  97.8885  76.8212 0066436 169.4104 190.8529 14.86491868671625
FUNCUBE-1 (AO-73)       
1 39444U 13066AE  26137.49295487  .00004330  00000+0  27395-3 0  9995
2 39444  97.8263 108.3114 0034922 310.4162  49.4020 15.09062717675034
UWE-3                   
1 39446U 13066AG  26137.39942690  .00002687  00000+0  23449-3 0  9990
2 39446  97.8683  93.2775 0050495  63.0713 297.5654 14.96739600672979
BRITE-CA1 (TORONTO)     
1 40020U 14033L   26137.32655748  .00000392  00000+0  66749-4 0  9995
2 40020  97.9695 266.8319 0078959  16.7377 343.6409 14.72631353637670
DUCHIFAT-1              
1 40021U 14033M   26137.13347860  .00065011  00000+0  83778-3 0  9997
2 40021  98.0501 192.0856 0006095 176.1135 184.0168 15.58796001650907
NANOSATC-BR1            
1 40024U 14033Q   26137.02782317  .00014134  00000+0  48321-3 0  9993
2 40024  98.0741 166.6784 0001705 299.8684  60.2385 15.30403978649214
QB50P1                  
1 40025U 14033R   26137.49845963  .00005948  00000+0  29821-3 0  9999
2 40025  98.0971 146.5048 0007888 342.5247  17.5712 15.17746364648378
QB50P2                  
1 40032U 14033Y   26137.45265588  .00004733  00000+0  25933-3 0  9993
2 40032  98.0752 132.4315 0005680 283.2435  76.8162 15.14733069648015
PERSEUS-M2              
1 40037U 14033AD  26137.48515965  .00001761  00000+0  16463-3 0  9994
2 40037  97.9952  87.4061 0013300  46.8132 313.4197 14.95411336646195
